[Satellite]
VERSION=1.1
NAME=IRIDIUM 109
NICKNAME=IRIDIUM 109
TLE1=1 41919U 17003C   22342.55766707  .00000296  00000+0  98555-4 0  9993
TLE2=2 41919  86.3974 266.0758 0001985  82.8041 277.3381 14.34221045308786
STATUS=0
